BEIDOU-2 G3             
1 36590U 10024A   26131.07247344 -.00000122  00000+0  00000+0 0  9998
2 36590   4.4279  61.6572 0008956 344.4377 288.4099  1.00269488 58391
BADR-5                  
1 36592U 10025A   26131.11564321  .00000155  00000+0  00000+0 0  9998
2 36592   0.0408 110.6992 0003892 345.1820 200.6503  1.00272513 52848
SJ-12                   
1 36596U 10027A   26131.17639839  .00003143  00000+0  16549-3 0  9996
2 36596  97.7643 147.9989 0005678 210.4708 149.6195 15.16382985869255
TANDEM-X                
1 36605U 10030A   26130.44920648  .00000232  00000+0  14229-4 0  9991
2 36605  97.4439 138.6922 0001732  79.3465 280.7964 15.19148682880913
COMS 1                  
1 36744U 10032A   26131.22197411 -.00000331  00000+0  00000+0 0  9996
2 36744   4.7112  75.8369 0000975 338.9756  22.2734  1.00271848 50726
ARABSAT-5A              
1 36745U 10032B   26130.79806958  .00000163  00000+0  00000+0 0  9993
2 36745   0.0733  55.0681 0004743  20.7952 110.5379  1.00270074 58277
ECHOSTAR 15             
1 36792U 10034A   26131.21028372  .00000010  00000+0  00000+0 0  9992
2 36792   0.0150 288.0572 0002000 132.5872 125.2661  1.00271984 57958
CARTOSAT-2B             
1 36795U 10035A   26131.18832547  .00000518  00000+0  77873-4 0  9999
2 36795  97.9981 181.9689 0010391 316.1182  43.9203 14.78615264854386
ALSAT-2A                
1 36798U 10035D   26131.16644889  .00000474  00000+0  78511-4 0  9991
2 36798  97.7640 135.2706 0001665  66.5239 293.6145 14.74425030848304
TISAT 1                 
1 36799U 10035E   26130.79614140  .00013199  00000+0  45306-3 0  9990
2 36799  98.0690  74.0785 0003717  57.1556 303.0040 15.30286662861987
BEIDOU-2 IGSO-1         
1 36828U 10036A   26129.56207134 -.00000068  00000+0  00000+0 0  9998
2 36828  54.2946 163.3091 0058711 224.6236 148.8612  1.00281802 57711
NILESAT 201             
1 36830U 10037A   26131.10913130 -.00000047  00000+0  00000+0 0  9992
2 36830   0.0422 113.9972 0003384 320.7231 186.4878  1.00271845 58001
RASCOM-QAF 1R           
1 36831U 10037B   26131.18239294  .00000029  00000+0  00000+0 0  9992
2 36831   0.0103 300.9140 0006649 107.6210 249.0018  1.00270664 57930
YAOGAN-10               
1 36834U 10038A   26131.23243256  .00001398  00000+0  16934-3 0  9992
2 36834  97.9006 154.9307 0001446  92.3834 334.9515 14.85233987851723
AEHF-1 (USA 214)        
1 36868U 10039A   26130.97379405  .00000161  00000+0  00000+0 0  9996
2 36868   8.1269  68.5292 0004205 337.7867 202.9520  1.00270580 53284
COSMOS 2467             
1 37152U 10043A   26131.12556958  .00000033  00000+0  16854-3 0  9992
2 37152  82.4548  88.2053 0000801 113.6015 257.9505 12.42983614710903
STRELA 3                
1 37153U 10043B   26131.21859729 -.00000048  00000+0 -42860-3 0  9999
2 37153  82.4545 101.4490 0007829 154.6376 205.5088 12.40791019709789
COSMOS 2468 (RODNIK-S 3)
1 37154U 10043C   26131.14623252  .00000029  00000+0  13621-3 0  9992
2 37154  82.4589  85.4306 0015603  32.7581 338.5334 12.43746424711279
YAOGAN-11               
1 37165U 10047A   26131.18684061  .00000442  00000+0  62708-4 0  9997
2 37165  98.3905 355.5371 0034841   3.3731 356.7709 14.82024815842617
ZHEDA PIXING 1B         
1 37166U 10047B   26131.19189211  .00000814  00000+0  87816-4 0  9996
2 37166  97.9466 109.1087 0020659  45.5990 314.6915 14.91080702844902
ZHEDA PIXING 1C         
1 37167U 10047C   26131.17746708  .00002102  00000+0  21874-3 0  9998
2 37167  97.9765 112.3984 0020479  52.4359 307.8715 14.90826493844910
SBSS (USA 216)          
1 37168U 10048A   26131.19087411  .00002850  00000+0  13925-3 0  9999
2 37168  97.7382  15.9266 0080580 332.3021 142.7949 15.16298805846860
SHIJIAN-6 04A (SJ-6 04A)
1 37179U 10051A   26131.23770631  .00003496  00000+0  17728-3 0  9995
2 37179  97.8316 153.1670 0018323 359.1490   0.9708 15.17525684851343
SHIJIAN-6 04B (SJ-6 04B)
1 37180U 10051B   26131.24916450  .00000178  00000+0  19628-4 0  9995
2 37180  97.8741 136.2834 0012829  70.6753 289.5855 14.99261113850141
XM-5                    
1 37185U 10053A   26131.15897676 -.00000013  00000+0  00000+0 0  9998
2 37185   0.0649 272.1000 0003474 276.6350 342.2685  1.00272098 57117
GLOBALSTAR M079         
1 37188U 10054A   26131.22814896 -.00000100  00000+0  20826-4 0  9993
2 37188  52.0035 221.1795 0000285 172.4871 210.9323 12.62265542717882
GLOBALSTAR M074         
1 37189U 10054B   26131.17085163 -.00000101  00000+0  16413-4 0  9993
2 37189  52.0013 220.6251 0000418 119.0145 243.8043 12.62267914718485
GLOBALSTAR M076         
1 37190U 10054C   26130.99654778 -.00000107  00000+0 -16315-4 0  9996
2 37190  52.0026 221.3540 0000199 111.3844  59.9469 12.62261371718172
GLOBALSTAR M077         
1 37191U 10054D   26131.16400084 -.00000097  00000+0 -34405-3 0  9993
2 37191  51.9967 273.2663 0003260 107.8887  62.5168 11.67546982716819
GLOBALSTAR M075         
1 37192U 10054E   26131.08900308 -.00000095  00000+0  51683-4 0  9994
2 37192  51.9953 263.1486 0000689 120.2273  50.5672 12.62266547717254
GLOBALSTAR M073         
1 37193U 10054F   26130.44069422 -.00000101  00000+0  15381-4 0  9990
2 37193  52.0045 179.1943 0000100 250.3430 211.9845 12.62266843719167
