OBJECT_NAME,OBJECT_ID,EPOCH,MEAN_MOTION,ECCENTRICITY,INCLINATION,RA_OF_ASC_NODE,ARG_OF_PERICENTER,MEAN_ANOMALY,EPHEMERIS_TYPE,CLASSIFICATION_TYPE,NORAD_CAT_ID,ELEMENT_SET_NO,REV_AT_EPOCH,BSTAR,MEAN_MOTION_DOT,MEAN_MOTION_DDOT
BEIDOU-2 G3,2010-024A,2026-05-11T01:44:21.705216,1.00269488,.0008956,4.4279,61.6572,344.4377,288.4099,0,U,36590,999,5839,0,-.122E-5,0
BADR-5,2010-025A,2026-05-11T02:46:31.573344,1.00272513,.00038928,0.0408,110.6992,345.1820,200.6503,0,U,36592,999,5284,0,.155E-5,0
SJ-12,2010-027A,2026-05-11T04:14:00.820896,15.16382985,.0005678,97.7643,147.9989,210.4708,149.6195,0,U,36596,999,86925,.16549E-3,.3143E-4,0
TANDEM-X,2010-030A,2026-05-10T10:46:51.439872,15.19148682,.00017324,97.4439,138.6922,79.3465,280.7964,0,U,36605,999,88091,.14228805E-4,.232E-5,0
COMS 1,2010-032A,2026-05-11T05:19:38.563104,1.00271848,.0000975,4.7112,75.8369,338.9756,22.2734,0,U,36744,999,5072,0,-.331E-5,0
ARABSAT-5A,2010-032B,2026-05-10T19:09:13.211712,1.00270074,.00047433,0.0733,55.0681,20.7952,110.5379,0,U,36745,999,5827,0,.163E-5,0
ECHOSTAR 15,2010-034A,2026-05-11T05:02:48.513408,1.00271984,.0002,0.0150,288.0572,132.5872,125.2661,0,U,36792,999,5795,0,.1E-6,0
CARTOSAT-2B,2010-035A,2026-05-11T04:31:11.320608,14.78615264,.0010391,97.9981,181.9689,316.1182,43.9203,0,U,36795,999,85438,.77873E-4,.518E-5,0
ALSAT-2A,2010-035D,2026-05-11T03:59:41.184096,14.74425030,.0001665,97.7640,135.2706,66.5239,293.6145,0,U,36798,999,84830,.78511E-4,.474E-5,0
TISAT 1,2010-035E,2026-05-10T19:06:26.616960,15.30286662,.00037176,98.0690,74.0785,57.1556,303.0040,0,U,36799,999,86198,.45305792E-3,.13199E-3,0
BEIDOU-2 IGSO-1,2010-036A,2026-05-09T13:29:22.963776,1.00281802,.00587117,54.2946,163.3091,224.6236,148.8612,0,U,36828,999,5771,0,-.68E-6,0
NILESAT 201,2010-037A,2026-05-11T02:37:08.944320,1.00271845,.00033847,0.0422,113.9972,320.7231,186.4878,0,U,36830,999,5800,0,-.47E-6,0
RASCOM-QAF 1R,2010-037B,2026-05-11T04:22:38.750016,1.00270664,.0006649,0.0103,300.9140,107.6210,249.0018,0,U,36831,999,5793,0,.29E-6,0
YAOGAN-10,2010-038A,2026-05-11T05:34:42.173184,14.85233987,.0001446,97.9006,154.9307,92.3834,334.9515,0,U,36834,999,85172,.16934E-3,.1398E-4,0
AEHF-1 (USA 214),2010-039A,2026-05-10T23:22:15.805920,1.00270580,.0004205,8.1269,68.5292,337.7867,202.9520,0,U,36868,999,5328,0,.161E-5,0
COSMOS 2467,2010-043A,2026-05-11T03:00:49.211712,12.42983614,.0000801,82.4548,88.2053,113.6015,257.9505,0,U,37152,999,71090,.16854E-3,.33E-6,0
STRELA 3,2010-043B,2026-05-11T05:14:46.805856,12.40791019,.0007829,82.4545,101.4490,154.6376,205.5088,0,U,37153,999,70978,-.4286E-3,-.48E-6,0
COSMOS 2468 (RODNIK-S 3),2010-043C,2026-05-11T03:30:34.489728,12.43746424,.0015603,82.4589,85.4306,32.7581,338.5334,0,U,37154,999,71127,.13621E-3,.29E-6,0
YAOGAN-11,2010-047A,2026-05-11T04:29:03.028704,14.82024815,.0034841,98.3905,355.5371,3.3731,356.7709,0,U,37165,999,84261,.62708E-4,.442E-5,0
ZHEDA PIXING 1B,2010-047B,2026-05-11T04:36:19.478304,14.91080702,.0020659,97.9466,109.1087,45.5990,314.6915,0,U,37166,999,84490,.87816477E-4,.814E-5,0
ZHEDA PIXING 1C,2010-047C,2026-05-11T04:15:33.155712,14.90826493,.0020479,97.9765,112.3984,52.4359,307.8715,0,U,37167,999,84491,.21874E-3,.2102E-4,0
SBSS (USA 216),2010-048A,2026-05-11T04:34:51.523104,15.16298805,.008058,97.7382,15.9266,332.3021,142.7949,0,U,37168,999,84686,.13925E-3,.285E-4,0
SHIJIAN-6 04A (SJ-6 04A),2010-051A,2026-05-11T05:42:17.825184,15.17525684,.0018323,97.8316,153.1670,359.1490,0.9708,0,U,37179,999,85134,.17728E-3,.3496E-4,0
SHIJIAN-6 04B (SJ-6 04B),2010-051B,2026-05-11T05:58:47.812800,14.99261113,.0012829,97.8741,136.2834,70.6753,289.5855,0,U,37180,999,85014,.19628E-4,.178E-5,0
XM-5,2010-053A,2026-05-11T03:48:55.592064,1.00272098,.0003474,0.0649,272.1000,276.6350,342.2685,0,U,37185,999,5711,0,-.13E-6,0
GLOBALSTAR M079,2010-054A,2026-05-11T05:28:32.070144,12.62265542,.0000285,52.0035,221.1795,172.4871,210.9323,0,U,37188,999,71788,.20826E-4,-.1E-5,0
GLOBALSTAR M074,2010-054B,2026-05-11T04:06:01.580832,12.62267914,.00004186,52.0013,220.6251,119.0145,243.8043,0,U,37189,999,71848,.16412615E-4,-.101E-5,0
GLOBALSTAR M076,2010-054C,2026-05-10T23:55:01.728192,12.62261371,.0000199,52.0026,221.3540,111.3844,59.9469,0,U,37190,999,71817,-.16315E-4,-.107E-5,0
GLOBALSTAR M077,2010-054D,2026-05-11T03:56:09.672576,11.67546982,.000326,51.9967,273.2663,107.8887,62.5168,0,U,37191,999,71681,-.34404511E-3,-.97E-6,0
GLOBALSTAR M075,2010-054E,2026-05-11T02:08:09.866112,12.62266547,.0000689,51.9953,263.1486,120.2273,50.5672,0,U,37192,999,71725,.51683E-4,-.95E-6,0
GLOBALSTAR M073,2010-054F,2026-05-10T10:34:35.980608,12.62266843,.00001006,52.0045,179.1943,250.3430,211.9845,0,U,37193,999,71916,.15381125E-4,-.101E-5,0
